[{"OBJECT_NAME":"STARLINK-31906","OBJECT_ID":"2024-097H","EPOCH":"2026-03-08T23:00:34.726464","MEAN_MOTION":15.27568151,"ECCENTRICITY":0.00019991,"INCLINATION":43.0029,"RA_OF_ASC_NODE":278.6119,"ARG_OF_PERICENTER":291.8309,"MEAN_ANOMALY":68.233,"EPHEMERIS_TYPE":0,"CLASSIFICATION_TYPE":"U","NORAD_CAT_ID":59842,"ELEMENT_SET_NO":999,"REV_AT_EPOCH":10180,"BSTAR":-2.9135845e-5,"MEAN_MOTION_DOT":-1.064e-5,"MEAN_MOTION_DDOT":0},{"OBJECT_NAME":"OBJECT B","OBJECT_ID":"2024-205B","EPOCH":"2026-03-09T23:46:05.115936","MEAN_MOTION":15.28158697,"ECCENTRICITY":0.00105957,"INCLINATION":97.4192,"RA_OF_ASC_NODE":146.9311,"ARG_OF_PERICENTER":34.0947,"MEAN_ANOMALY":326.0972,"EPHEMERIS_TYPE":0,"CLASSIFICATION_TYPE":"U","NORAD_CAT_ID":61895,"ELEMENT_SET_NO":999,"REV_AT_EPOCH":7352,"BSTAR":0.00054154807,"MEAN_MOTION_DOT":0.00014827,"MEAN_MOTION_DDOT":0}]
